<?xml version="1.0" encoding="UTF-8"?>
<ndm xmlns:xsi="http://www.w3.org/2001/XMLSchema-instance" xsi:noNamespaceSchemaLocation="https://sanaregistry.org/r/ndmxml_unqualified/ndmxml-2.0.0-master-2.0.xsd">
<omm id="CCSDS_OMM_VERS" version="2.0">
<header><CREATION_DATE/><ORIGINATOR/></header><body><segment><metadata><OBJECT_NAME>ONEWEB-0664</OBJECT_NAME><OBJECT_ID>2023-029AE</OBJECT_ID><CENTER_NAME>EARTH</CENTER_NAME><REF_FRAME>TEME</REF_FRAME><TIME_SYSTEM>UTC</TIME_SYSTEM><MEAN_ELEMENT_THEORY>SGP4</MEAN_ELEMENT_THEORY></metadata><data><meanElements><EPOCH>2025-07-01T21:24:33.825024</EPOCH><MEAN_MOTION>13.20770514</MEAN_MOTION><ECCENTRICITY>.0001633</ECCENTRICITY><INCLINATION>87.9274</INCLINATION><RA_OF_ASC_NODE>344.2692</RA_OF_ASC_NODE><ARG_OF_PERICENTER>106.6288</ARG_OF_PERICENTER><MEAN_ANOMALY>253.5025</MEAN_ANOMALY></meanElements><tleParameters><EPHEMERIS_TYPE>0</EPHEMERIS_TYPE><CLASSIFICATION_TYPE>U</CLASSIFICATION_TYPE><NORAD_CAT_ID>55824</NORAD_CAT_ID><ELEMENT_SET_NO>999</ELEMENT_SET_NO><REV_AT_EPOCH>11490</REV_AT_EPOCH><BSTAR>-.11899E-3</BSTAR><MEAN_MOTION_DOT>-.35E-6</MEAN_MOTION_DOT><MEAN_MOTION_DDOT>0</MEAN_MOTION_DDOT></tleParameters></data></segment></body></omm>
<omm id="CCSDS_OMM_VERS" version="2.0">
<header><CREATION_DATE/><ORIGINATOR/></header><body><segment><metadata><OBJECT_NAME>ONEWEB-0665</OBJECT_NAME><OBJECT_ID>2023-029AF</OBJECT_ID><CENTER_NAME>EARTH</CENTER_NAME><REF_FRAME>TEME</REF_FRAME><TIME_SYSTEM>UTC</TIME_SYSTEM><MEAN_ELEMENT_THEORY>SGP4</MEAN_ELEMENT_THEORY></metadata><data><meanElements><EPOCH>2025-07-02T13:11:07.640736</EPOCH><MEAN_MOTION>13.14502499</MEAN_MOTION><ECCENTRICITY>.0002022</ECCENTRICITY><INCLINATION>87.9039</INCLINATION><RA_OF_ASC_NODE>359.2909</RA_OF_ASC_NODE><ARG_OF_PERICENTER>96.8634</ARG_OF_PERICENTER><MEAN_ANOMALY>263.2725</MEAN_ANOMALY></meanElements><tleParameters><EPHEMERIS_TYPE>0</EPHEMERIS_TYPE><CLASSIFICATION_TYPE>U</CLASSIFICATION_TYPE><NORAD_CAT_ID>55825</NORAD_CAT_ID><ELEMENT_SET_NO>999</ELEMENT_SET_NO><REV_AT_EPOCH>11347</REV_AT_EPOCH><BSTAR>.53653E-3</BSTAR><MEAN_MOTION_DOT>.212E-5</MEAN_MOTION_DOT><MEAN_MOTION_DDOT>0</MEAN_MOTION_DDOT></tleParameters></data></segment></body></omm>
<omm id="CCSDS_OMM_VERS" version="2.0">
<header><CREATION_DATE/><ORIGINATOR/></header><body><segment><metadata><OBJECT_NAME>ONEWEB-0666</OBJECT_NAME><OBJECT_ID>2023-029AG</OBJECT_ID><CENTER_NAME>EARTH</CENTER_NAME><REF_FRAME>TEME</REF_FRAME><TIME_SYSTEM>UTC</TIME_SYSTEM><MEAN_ELEMENT_THEORY>SGP4</MEAN_ELEMENT_THEORY></metadata><data><meanElements><EPOCH>2025-07-02T11:48:12.322656</EPOCH><MEAN_MOTION>13.20770845</MEAN_MOTION><ECCENTRICITY>.0001652</ECCENTRICITY><INCLINATION>87.9273</INCLINATION><RA_OF_ASC_NODE>344.1385</RA_OF_ASC_NODE><ARG_OF_PERICENTER>70.0869</ARG_OF_PERICENTER><MEAN_ANOMALY>290.0442</MEAN_ANOMALY></meanElements><tleParameters><EPHEMERIS_TYPE>0</EPHEMERIS_TYPE><CLASSIFICATION_TYPE>U</CLASSIFICATION_TYPE><NORAD_CAT_ID>55826</NORAD_CAT_ID><ELEMENT_SET_NO>999</ELEMENT_SET_NO><REV_AT_EPOCH>11499</REV_AT_EPOCH><BSTAR>.12746E-3</BSTAR><MEAN_MOTION_DOT>.65E-6</MEAN_MOTION_DOT><MEAN_MOTION_DDOT>0</MEAN_MOTION_DDOT></tleParameters></data></segment></body></omm>
<omm id="CCSDS_OMM_VERS" version="2.0">
<header><CREATION_DATE/><ORIGINATOR/></header><body><segment><metadata><OBJECT_NAME>ONEWEB-0667</OBJECT_NAME><OBJECT_ID>2023-029AH</OBJECT_ID><CENTER_NAME>EARTH</CENTER_NAME><REF_FRAME>TEME</REF_FRAME><TIME_SYSTEM>UTC</TIME_SYSTEM><MEAN_ELEMENT_THEORY>SGP4</MEAN_ELEMENT_THEORY></metadata><data><meanElements><EPOCH>2025-07-02T11:39:05.795136</EPOCH><MEAN_MOTION>13.20770100</MEAN_MOTION><ECCENTRICITY>.0001925</ECCENTRICITY><INCLINATION>87.9268</INCLINATION><RA_OF_ASC_NODE>344.0713</RA_OF_ASC_NODE><ARG_OF_PERICENTER>100.7748</ARG_OF_PERICENTER><MEAN_ANOMALY>259.3602</MEAN_ANOMALY></meanElements><tleParameters><EPHEMERIS_TYPE>0</EPHEMERIS_TYPE><CLASSIFICATION_TYPE>U</CLASSIFICATION_TYPE><NORAD_CAT_ID>55827</NORAD_CAT_ID><ELEMENT_SET_NO>999</ELEMENT_SET_NO><REV_AT_EPOCH>11498</REV_AT_EPOCH><BSTAR>.21503E-3</BSTAR><MEAN_MOTION_DOT>.1E-5</MEAN_MOTION_DOT><MEAN_MOTION_DDOT>0</MEAN_MOTION_DDOT></tleParameters></data></segment></body></omm>
<omm id="CCSDS_OMM_VERS" version="2.0">
<header><CREATION_DATE/><ORIGINATOR/></header><body><segment><metadata><OBJECT_NAME>ONEWEB-0669</OBJECT_NAME><OBJECT_ID>2023-029AJ</OBJECT_ID><CENTER_NAME>EARTH</CENTER_NAME><REF_FRAME>TEME</REF_FRAME><TIME_SYSTEM>UTC</TIME_SYSTEM><MEAN_ELEMENT_THEORY>SGP4</MEAN_ELEMENT_THEORY></metadata><data><meanElements><EPOCH>2025-07-01T20:59:33.628992</EPOCH><MEAN_MOTION>13.20772822</MEAN_MOTION><ECCENTRICITY>.0001124</ECCENTRICITY><INCLINATION>87.9272</INCLINATION><RA_OF_ASC_NODE>344.2286</RA_OF_ASC_NODE><ARG_OF_PERICENTER>97.8794</ARG_OF_PERICENTER><MEAN_ANOMALY>262.2467</MEAN_ANOMALY></meanElements><tleParameters><EPHEMERIS_TYPE>0</EPHEMERIS_TYPE><CLASSIFICATION_TYPE>U</CLASSIFICATION_TYPE><NORAD_CAT_ID>55828</NORAD_CAT_ID><ELEMENT_SET_NO>999</ELEMENT_SET_NO><REV_AT_EPOCH>11490</REV_AT_EPOCH><BSTAR>.13942E-3</BSTAR><MEAN_MOTION_DOT>.7E-6</MEAN_MOTION_DOT><MEAN_MOTION_DDOT>0</MEAN_MOTION_DDOT></tleParameters></data></segment></body></omm>
<omm id="CCSDS_OMM_VERS" version="2.0">
<header><CREATION_DATE/><ORIGINATOR/></header><body><segment><metadata><OBJECT_NAME>ONEWEB-0670</OBJECT_NAME><OBJECT_ID>2023-029AK</OBJECT_ID><CENTER_NAME>EARTH</CENTER_NAME><REF_FRAME>TEME</REF_FRAME><TIME_SYSTEM>UTC</TIME_SYSTEM><MEAN_ELEMENT_THEORY>SGP4</MEAN_ELEMENT_THEORY></metadata><data><meanElements><EPOCH>2025-07-01T22:02:16.644480</EPOCH><MEAN_MOTION>13.14502818</MEAN_MOTION><ECCENTRICITY>.000179</ECCENTRICITY><INCLINATION>87.9042</INCLINATION><RA_OF_ASC_NODE>359.4346</RA_OF_ASC_NODE><ARG_OF_PERICENTER>105.7570</ARG_OF_PERICENTER><MEAN_ANOMALY>254.3757</MEAN_ANOMALY></meanElements><tleParameters><EPHEMERIS_TYPE>0</EPHEMERIS_TYPE><CLASSIFICATION_TYPE>U</CLASSIFICATION_TYPE><NORAD_CAT_ID>55829</NORAD_CAT_ID><ELEMENT_SET_NO>999</ELEMENT_SET_NO><REV_AT_EPOCH>11341</REV_AT_EPOCH><BSTAR>-.96076E-4</BSTAR><MEAN_MOTION_DOT>-.23E-6</MEAN_MOTION_DOT><MEAN_MOTION_DDOT>0</MEAN_MOTION_DDOT></tleParameters></data></segment></body></omm>
<omm id="CCSDS_OMM_VERS" version="2.0">
<header><CREATION_DATE/><ORIGINATOR/></header><body><segment><metadata><OBJECT_NAME>ONEWEB-0671</OBJECT_NAME><OBJECT_ID>2023-029AL</OBJECT_ID><CENTER_NAME>EARTH</CENTER_NAME><REF_FRAME>TEME</REF_FRAME><TIME_SYSTEM>UTC</TIME_SYSTEM><MEAN_ELEMENT_THEORY>SGP4</MEAN_ELEMENT_THEORY></metadata><data><meanElements><EPOCH>2025-07-01T22:35:49.622784</EPOCH><MEAN_MOTION>13.19724571</MEAN_MOTION><ECCENTRICITY>.0001873</ECCENTRICITY><INCLINATION>87.9215</INCLINATION><RA_OF_ASC_NODE>14.6095</RA_OF_ASC_NODE><ARG_OF_PERICENTER>96.7355</ARG_OF_PERICENTER><MEAN_ANOMALY>263.3991</MEAN_ANOMALY></meanElements><tleParameters><EPHEMERIS_TYPE>0</EPHEMERIS_TYPE><CLASSIFICATION_TYPE>U</CLASSIFICATION_TYPE><NORAD_CAT_ID>55830</NORAD_CAT_ID><ELEMENT_SET_NO>999</ELEMENT_SET_NO><REV_AT_EPOCH>11270</REV_AT_EPOCH><BSTAR>.93748E-4</BSTAR><MEAN_MOTION_DOT>.5E-6</MEAN_MOTION_DOT><MEAN_MOTION_DDOT>0</MEAN_MOTION_DDOT></tleParameters></data></segment></body></omm>
<omm id="CCSDS_OMM_VERS" version="2.0">
<header><CREATION_DATE/><ORIGINATOR/></header><body><segment><metadata><OBJECT_NAME>ONEWEB-0672</OBJECT_NAME><OBJECT_ID>2023-029AM</OBJECT_ID><CENTER_NAME>EARTH</CENTER_NAME><REF_FRAME>TEME</REF_FRAME><TIME_SYSTEM>UTC</TIME_SYSTEM><MEAN_ELEMENT_THEORY>SGP4</MEAN_ELEMENT_THEORY></metadata><data><meanElements><EPOCH>2025-07-02T09:36:23.386752</EPOCH><MEAN_MOTION>13.20771716</MEAN_MOTION><ECCENTRICITY>.0001641</ECCENTRICITY><INCLINATION>87.9274</INCLINATION><RA_OF_ASC_NODE>344.1098</RA_OF_ASC_NODE><ARG_OF_PERICENTER>86.6060</ARG_OF_PERICENTER><MEAN_ANOMALY>273.5261</MEAN_ANOMALY></meanElements><tleParameters><EPHEMERIS_TYPE>0</EPHEMERIS_TYPE><CLASSIFICATION_TYPE>U</CLASSIFICATION_TYPE><NORAD_CAT_ID>55831</NORAD_CAT_ID><ELEMENT_SET_NO>999</ELEMENT_SET_NO><REV_AT_EPOCH>11497</REV_AT_EPOCH><BSTAR>.32574E-3</BSTAR><MEAN_MOTION_DOT>.145E-5</MEAN_MOTION_DOT><MEAN_MOTION_DDOT>0</MEAN_MOTION_DDOT></tleParameters></data></segment></body></omm>
<omm id="CCSDS_OMM_VERS" version="2.0">
<header><CREATION_DATE/><ORIGINATOR/></header><body><segment><metadata><OBJECT_NAME>ONEWEB-0673</OBJECT_NAME><OBJECT_ID>2023-029AN</OBJECT_ID><CENTER_NAME>EARTH</CENTER_NAME><REF_FRAME>TEME</REF_FRAME><TIME_SYSTEM>UTC</TIME_SYSTEM><MEAN_ELEMENT_THEORY>SGP4</MEAN_ELEMENT_THEORY></metadata><data><meanElements><EPOCH>2025-07-01T18:23:20.689152</EPOCH><MEAN_MOTION>13.19728552</MEAN_MOTION><ECCENTRICITY>.0002106</ECCENTRICITY><INCLINATION>87.9215</INCLINATION><RA_OF_ASC_NODE>14.6077</RA_OF_ASC_NODE><ARG_OF_PERICENTER>90.0996</ARG_OF_PERICENTER><MEAN_ANOMALY>270.0378</MEAN_ANOMALY></meanElements><tleParameters><EPHEMERIS_TYPE>0</EPHEMERIS_TYPE><CLASSIFICATION_TYPE>U</CLASSIFICATION_TYPE><NORAD_CAT_ID>55832</NORAD_CAT_ID><ELEMENT_SET_NO>999</ELEMENT_SET_NO><REV_AT_EPOCH>11268</REV_AT_EPOCH><BSTAR>.16193E-3</BSTAR><MEAN_MOTION_DOT>.78E-6</MEAN_MOTION_DOT><MEAN_MOTION_DDOT>0</MEAN_MOTION_DDOT></tleParameters></data></segment></body></omm>

</ndm>
